[{"OBJECT_NAME":"STARLINK-33957","OBJECT_ID":"2025-095H","EPOCH":"2026-03-08T09:03:27.123264","MEAN_MOTION":15.2757745,"ECCENTRICITY":0.00015399,"INCLINATION":43.0035,"RA_OF_ASC_NODE":183.9355,"ARG_OF_PERICENTER":241.4171,"MEAN_ANOMALY":118.6526,"EPHEMERIS_TYPE":0,"CLASSIFICATION_TYPE":"U","NORAD_CAT_ID":63897,"ELEMENT_SET_NO":999,"REV_AT_EPOCH":4757,"BSTAR":0.0018583728,"MEAN_MOTION_DOT":0.00051228,"MEAN_MOTION_DDOT":0},{"OBJECT_NAME":"BANDWAGON-4 OBJECT M","OBJECT_ID":"2025-248M","EPOCH":"2026-03-09T00:50:26.830464","MEAN_MOTION":15.24295413,"ECCENTRICITY":0.00129441,"INCLINATION":45.4108,"RA_OF_ASC_NODE":294.9904,"ARG_OF_PERICENTER":207.5285,"MEAN_ANOMALY":152.4918,"EPHEMERIS_TYPE":0,"CLASSIFICATION_TYPE":"U","NORAD_CAT_ID":66304,"ELEMENT_SET_NO":999,"REV_AT_EPOCH":1803,"BSTAR":0.00095703617,"MEAN_MOTION_DOT":0.00023645,"MEAN_MOTION_DDOT":0}]
